TIANMU-1 21             
1 58662U 23208C   26193.86174010  .00006416  00000+0  18812-3 0  9999
2 58662  97.4524 313.7568 0006478 213.0931 146.9908 15.35526109141502
TIANMU-1 22             
1 58663U 23208D   26193.82020307  .00004728  00000+0  15850-3 0  9998
2 58663  97.4520 310.1737 0002557 229.6280 130.4739 15.31407119141259
TIANMU-1 15             
1 58700U 24004A   26193.85356470  .00003251  00000+0  12585-3 0  9993
2 58700  97.4667  20.0443 0005891 238.6454 121.4208 15.26899404139693
TIANMU-1 16             
1 58701U 24004B   26193.84318942  .00003317  00000+0  12797-3 0  9993
2 58701  97.4614  19.2518 0004357 256.7388 103.3365 15.27002685139693
TIANMU-1 17             
1 58702U 24004C   26193.82866851  .00003482  00000+0  13423-3 0  9999
2 58702  97.4641  19.7316 0003854 263.8544  96.2256 15.27000820139686
TIANMU-1 18             
1 58703U 24004D   26193.87015817  .00003259  00000+0  12614-3 0  9996
2 58703  97.4659  20.0356 0003602 235.7270 124.3627 15.26916669139692
INSAT-3DS               
1 58990U 24033A   26193.79312743 -.00000156  00000+0  00000+0 0  9991
2 58990   0.0982 265.1736 0001033 225.5133 167.5910  1.00271140 47321
METEOR-M2 4             
1 59051U 24039A   26193.85824852 -.00000019  00000+0  11001-4 0  9998
2 59051  98.7024 152.8355 0008247  94.5773 265.6347 14.22432032122918
GOES 19                 
1 60133U 24119A   26193.83325431 -.00000249  00000+0  00000+0 0  9994
2 60133   0.0079 286.6205 0000463 289.4526 299.4176  1.00272104  7225
MTG-S1                  
1 64723U 25143A   26193.77678795 -.00000007  00000+0  00000+0 0  9990
2 64723   0.5858 344.5219 0003495 261.9955 323.3677  1.00273009  3675
METOP-SGA1              
1 65159U 25172A   26193.79123456  .00000008  00000+0  24140-4 0  9993
2 65159  98.6631 252.9775 0007201 339.5728  20.5160 14.19818920 47429
FENGYUN 3H              
1 65815U 25219A   26193.76118778 -.00000010  00000+0  15599-4 0  9994
2 65815  98.6771 134.0337 0001201  62.8991 297.2308 14.19924541 41012
