OBJECT_NAME,OBJECT_ID,EPOCH,MEAN_MOTION,ECCENTRICITY,INCLINATION,RA_OF_ASC_NODE,ARG_OF_PERICENTER,MEAN_ANOMALY,EPHEMERIS_TYPE,CLASSIFICATION_TYPE,NORAD_CAT_ID,ELEMENT_SET_NO,REV_AT_EPOCH,BSTAR,MEAN_MOTION_DOT,MEAN_MOTION_DDOT
TIANMU-1 21,2023-208C,2026-07-12T20:40:54.344640,15.35526109,.0006478,97.4524,313.7568,213.0931,146.9908,0,U,58662,999,14150,.18812E-3,.6416E-4,0
TIANMU-1 22,2023-208D,2026-07-12T19:41:05.545248,15.31407119,.0002557,97.4520,310.1737,229.6280,130.4739,0,U,58663,999,14125,.1585E-3,.4728E-4,0
TIANMU-1 15,2024-004A,2026-07-12T20:29:07.990080,15.26899404,.0005891,97.4667,20.0443,238.6454,121.4208,0,U,58700,999,13969,.12585E-3,.3251E-4,0
TIANMU-1 16,2024-004B,2026-07-12T20:14:11.565888,15.27002685,.0004357,97.4614,19.2518,256.7388,103.3365,0,U,58701,999,13969,.12797E-3,.3317E-4,0
TIANMU-1 17,2024-004C,2026-07-12T19:53:16.959264,15.27000820,.0003854,97.4641,19.7316,263.8544,96.2256,0,U,58702,999,13968,.13423E-3,.3482E-4,0
TIANMU-1 18,2024-004D,2026-07-12T20:53:01.665888,15.26916669,.0003602,97.4659,20.0356,235.7270,124.3627,0,U,58703,999,13969,.12614E-3,.3259E-4,0
INSAT-3DS,2024-033A,2026-07-12T19:02:06.209952,1.00271140,.0001033,0.0982,265.1736,225.5133,167.5910,0,U,58990,999,4732,0,-.156E-5,0
METEOR-M2 4,2024-039A,2026-07-12T20:35:52.672128,14.22432032,.0008247,98.7024,152.8355,94.5773,265.6347,0,U,59051,999,12291,.11001E-4,-.19E-6,0
GOES 19,2024-119A,2026-07-12T19:59:53.172384,1.00272104,.0000463,0.0079,286.6205,289.4526,299.4176,0,U,60133,999,722,0,-.249E-5,0
MTG-S1,2025-143A,2026-07-12T18:38:34.478880,1.00273009,.0003495,0.5858,344.5219,261.9955,323.3677,0,U,64723,999,367,0,-.7E-7,0
METOP-SGA1,2025-172A,2026-07-12T18:59:22.665984,14.19818920,.0007201,98.6631,252.9775,339.5728,20.5160,0,U,65159,999,4742,.2414E-4,.8E-7,0
FENGYUN 3H,2025-219A,2026-07-12T18:16:06.624192,14.19924541,.0001201,98.6771,134.0337,62.8991,297.2308,0,U,65815,999,4101,.15599E-4,-.1E-6,0
